{"type": "FeatureCollection", "features": [ {"type": "Feature", "properties": {"norad_id": 35022, "name": "COSMOS 2251 DEB", "group": "cosmos-2251-debris", "lat": 19.455899308885556, "lon": 122.97705226930115, "alt_km": 658.0877710302548, "timestamp": "2025-12-19T14:48:36.643970+00:00", "meta": {"OBJECT_NAME": "COSMOS 2251 DEB", "OBJECT_ID": "1993-036AGK", "EPOCH": "2025-12-15T14:45:27.251136", "MEAN_MOTION": 14.60846809, "ECCENTRICITY": 0.00465822, "INCLINATION": 74.027, "RA_OF_ASC_NODE": 316.4327, "ARG_OF_PERICENTER": 155.4398, "MEAN_ANOMALY": 204.9001, "EPHEMERIS_TYPE": 0, "CLASSIFICATION_TYPE": "U", "NORAD_CAT_ID": 35022, "ELEMENT_SET_NO": 999, "REV_AT_EPOCH": 59185, "BSTAR": 0.00033959453, "MEAN_MOTION_DOT": 1.655e-05, "MEAN_MOTION_DDOT": 0}, "tle": {"line1": "1 35022U 93036AGK 25349.61489874  .00001655  00000+0  33959-3 0  9991", "line2": "2 35022  74.0270 316.4327 0046582 155.4398 204.9001 14.60846809591850"}}, "geometry": {"type": "Point", "coordinates": [122.97705226930115, 19.455899308885556]}}, {"type": "Feature", "properties": {"norad_id": 35023, "name": "COSMOS 2251 DEB", "group": "cosmos-2251-debris", "lat": 68.7561028648044, "lon": -28.7042758601316, "alt_km": 597.6446246888208, "timestamp": "2025-12-19T14:48:36.643980+00:00", "meta": {"OBJECT_NAME": "COSMOS 2251 DEB", "OBJECT_ID": "1993-036AGL", "EPOCH": "2025-12-18T14:23:31.331616", "MEAN_MOTION": 14.95273535, "ECCENTRICITY": 0.00337897, "INCLINATION": 74.0365, "RA_OF_ASC_NODE": 200.7668, "ARG_OF_PERICENTER": 277.6727, "MEAN_ANOMALY": 112.0597, "EPHEMERIS_TYPE": 0, "CLASSIFICATION_TYPE": "U", "NORAD_CAT_ID": 35023, "ELEMENT_SET_NO": 999, "REV_AT_EPOCH": 88367, "BSTAR": 0.0011370684, "MEAN_MOTION_DOT": 0.00012649, "MEAN_MOTION_DDOT": 0}, "tle": {"line1": "1 35023U 93036AGL 25352.59966819  .00012649  00000+0  11371-2 0  9990", "line2": "2 35023  74.0365 200.7668 0033789 277.6727 112.0597 14.95273535883678"}}, "geometry": {"type": "Point", "coordinates": [-28.7042758601316, 68.7561028648044]}}, {"type": "Feature", "properties": {"norad_id": 35025, "name": "COSMOS 2251 DEB", "group": "cosmos-2251-debris", "lat": -16.142341305077576, "lon": 44.67069834152995, "alt_km": 601.229541168208, "timestamp": "2025-12-19T14:48:36.643991+00:00", "meta": {"OBJECT_NAME": "COSMOS 2251 DEB", "OBJECT_ID": "1993-036AGN", "EPOCH": "2025-12-19T03:28:23.797632", "MEAN_MOTION": 14.72738749, "ECCENTRICITY": 0.00854592, "INCLINATION": 73.9384, "RA_OF_ASC_NODE": 50.379, "ARG_OF_PERICENTER": 321.8323, "MEAN_ANOMALY": 37.6815, "EPHEMERIS_TYPE": 0, "CLASSIFICATION_TYPE": "U", "NORAD_CAT_ID": 35025, "ELEMENT_SET_NO": 999, "REV_AT_EPOCH": 88737, "BSTAR": 0.0002959599, "MEAN_MOTION_DOT": 1.965e-05, "MEAN_MOTION_DDOT": 0}, "tle": {"line1": "1 35025U 93036AGN 25353.14471988  .00001965  00000+0  29596-3 0  9990", "line2": "2 35025  73.9384  50.3790 0085459 321.8323  37.6815 14.72738749887373"}}, "geometry": {"type": "Point", "coordinates": [44.67069834152995, -16.142341305077576]}}, {"type": "Feature", "properties": {"norad_id": 35026, "name": "COSMOS 2251 DEB", "group": "cosmos-2251-debris", "lat": 70.59208377644228, "lon": 71.53658371513083, "alt_km": 664.2104073984601, "timestamp": "2025-12-19T14:48:36.644001+00:00", "meta": {"OBJECT_NAME": "COSMOS 2251 DEB", "OBJECT_ID": "1993-036AGP", "EPOCH": "2025-12-18T03:45:00.139104", "MEAN_MOTION": 14.53626797, "ECCENTRICITY": 0.0082422, "INCLINATION": 74.047, "RA_OF_ASC_NODE": 308.5764, "ARG_OF_PERICENTER": 60.5026, "MEAN_ANOMALY": 318.4835, "EPHEMERIS_TYPE": 0, "CLASSIFICATION_TYPE": "U", "NORAD_CAT_ID": 35026, "ELEMENT_SET_NO": 999, "REV_AT_EPOCH": 88222, "BSTAR": 6.097601e-05, "MEAN_MOTION_DOT": 2.37e-06, "MEAN_MOTION_DDOT": 0}, "tle": {"line1": "1 35026U 93036AGP 25352.15625161  .00000237  00000+0  60976-4 0  9994", "line2": "2 35026  74.0470 308.5764 0082422  60.5026 318.4835 14.53626797882224"}}, "geometry": {"type": "Point", "coordinates": [71.53658371513083, 70.59208377644228]}}, {"type": "Feature", "properties": {"norad_id": 35028, "name": "COSMOS 2251 DEB", "group": "cosmos-2251-debris", "lat": -68.17885292096847, "lon": -147.69707121432202, "alt_km": 725.5262598743138, "timestamp": "2025-12-19T14:48:36.644011+00:00", "meta": {"OBJECT_NAME": "COSMOS 2251 DEB", "OBJECT_ID": "1993-036AGR", "EPOCH": "2025-12-18T03:11:52.081152", "MEAN_MOTION": 14.56575396, "ECCENTRICITY": 0.00826724, "INCLINATION": 74.0383, "RA_OF_ASC_NODE": 260.7455, "ARG_OF_PERICENTER": 32.9493, "MEAN_ANOMALY": 35.4382, "EPHEMERIS_TYPE": 0, "CLASSIFICATION_TYPE": "U", "NORAD_CAT_ID": 35028, "ELEMENT_SET_NO": 999, "REV_AT_EPOCH": 88364, "BSTAR": 8.3392474e-05, "MEAN_MOTION_DOT": 3.58e-06, "MEAN_MOTION_DDOT": 0}, "tle": {"line1": "1 35028U 93036AGR 25352.13324168  .00000358  00000+0  83392-4 0  9998", "line2": "2 35028  74.0383 260.7455 0082672  32.9493  35.4382 14.56575396883644"}}, "geometry": {"type": "Point", "coordinates": [-147.69707121432202, -68.17885292096847]}}, {"type": "Feature", "properties": {"norad_id": 35031, "name": "COSMOS 2251 DEB", "group": "cosmos-2251-debris", "lat": 67.89844576335778, "lon": 21.780860198871917, "alt_km": 765.3064044123466, "timestamp": "2025-12-19T14:48:36.644022+00:00", "meta": {"OBJECT_NAME": "COSMOS 2251 DEB", "OBJECT_ID": "1993-036AGU", "EPOCH": "2025-12-17T23:55:41.225088", "MEAN_MOTION": 14.38299529, "ECCENTRICITY": 0.00190755, "INCLINATION": 74.0382, "RA_OF_ASC_NODE": 249.5774, "ARG_OF_PERICENTER": 342.0186, "MEAN_ANOMALY": 18.0291, "EPHEMERIS_TYPE": 0, "CLASSIFICATION_TYPE": "U", "NORAD_CAT_ID": 35031, "ELEMENT_SET_NO": 999, "REV_AT_EPOCH": 65359, "BSTAR": 0.00013785455, "MEAN_MOTION_DOT": 3.94e-06, "MEAN_MOTION_DDOT": 0}, "tle": {"line1": "1 35031U 93036AGU 25351.99700492  .00000394  00000+0  13785-3 0  9991", "line2": "2 35031  74.0382 249.5774 0019075 342.0186  18.0291 14.38299529653593"}}, "geometry": {"type": "Point", "coordinates": [21.780860198871917, 67.89844576335778]}}, {"type": "Feature", "properties": {"norad_id": 35032, "name": "COSMOS 2251 DEB", "group": "cosmos-2251-debris", "lat": 59.570184968361396, "lon": 144.47617623475412, "alt_km": 689.0493633175474, "timestamp": "2025-12-19T14:48:36.644032+00:00", "meta": {"OBJECT_NAME": "COSMOS 2251 DEB", "OBJECT_ID": "1993-036AGV", "EPOCH": "2025-12-18T10:59:13.334208", "MEAN_MOTION": 14.58770343, "ECCENTRICITY": 0.0067994, "INCLINATION": 73.8514, "RA_OF_ASC_NODE": 356.2639, "ARG_OF_PERICENTER": 206.6367, "MEAN_ANOMALY": 304.5499, "EPHEMERIS_TYPE": 0, "CLASSIFICATION_TYPE": "U", "NORAD_CAT_ID": 35032, "ELEMENT_SET_NO": 999, "REV_AT_EPOCH": 87757, "BSTAR": 0.00069326657, "MEAN_MOTION_DOT": 3.313e-05, "MEAN_MOTION_DDOT": 0}, "tle": {"line1": "1 35032U 93036AGV 25352.45779322  .00003313  00000+0  69327-3 0  9999", "line2": "2 35032  73.8514 356.2639 0067994 206.6367 304.5499 14.58770343877572"}}, "geometry": {"type": "Point", "coordinates": [144.47617623475412, 59.570184968361396]}}, {"type": "Feature", "properties": {"norad_id": 35033, "name": "COSMOS 2251 DEB", "group": "cosmos-2251-debris", "lat": -49.98927602047896, "lon": 143.68171224827893, "alt_km": 720.8646442600248, "timestamp": "2025-12-19T14:48:36.644043+00:00", "meta": {"OBJECT_NAME": "COSMOS 2251 DEB", "OBJECT_ID": "1993-036AGW", "EPOCH": "2025-12-19T05:07:27.625152", "MEAN_MOTION": 14.50959587, "ECCENTRICITY": 0.00144803, "INCLINATION": 74.0251, "RA_OF_ASC_NODE": 164.3945, "ARG_OF_PERICENTER": 270.8601, "MEAN_ANOMALY": 89.0901, "EPHEMERIS_TYPE": 0, "CLASSIFICATION_TYPE": "U", "NORAD_CAT_ID": 35033, "ELEMENT_SET_NO": 999, "REV_AT_EPOCH": 66021, "BSTAR": 0.00048139208, "MEAN_MOTION_DOT": 1.877e-05, "MEAN_MOTION_DDOT": 0}, "tle": {"line1": "1 35033U 93036AGW 25353.21351418  .00001877  00000+0  48139-3 0  9998", "line2": "2 35033  74.0251 164.3945 0014480 270.8601  89.0901 14.50959587660213"}}, "geometry": {"type": "Point", "coordinates": [143.68171224827893, -49.98927602047896]}}, {"type": "Feature", "properties": {"norad_id": 35038, "name": "COSMOS 2251 DEB", "group": "cosmos-2251-debris", "lat": -5.0129207370602815, "lon": 28.80152751851175, "alt_km": 732.7546599713587, "timestamp": "2025-12-19T14:48:36.644053+00:00", "meta": {"OBJECT_NAME": "COSMOS 2251 DEB", "OBJECT_ID": "1993-036AHB", "EPOCH": "2025-12-16T02:43:57.942048", "MEAN_MOTION": 14.25166694, "ECCENTRICITY": 0.01140711, "INCLINATION": 74.1077, "RA_OF_ASC_NODE": 36.5236, "ARG_OF_PERICENTER": 19.3791, "MEAN_ANOMALY": 9.3469, "EPHEMERIS_TYPE": 0, "CLASSIFICATION_TYPE": "U", "NORAD_CAT_ID": 35038, "ELEMENT_SET_NO": 999, "REV_AT_EPOCH": 85617, "BSTAR": 0.00096319549, "MEAN_MOTION_DOT": 2.397e-05, "MEAN_MOTION_DDOT": 0}, "tle": {"line1": "1 35038U 93036AHB 25350.11386507  .00002397  00000+0  96320-3 0  9999", "line2": "2 35038  74.1077  36.5236 0114071  19.3791   9.3469 14.25166694856178"}}, "geometry": {"type": "Point", "coordinates": [28.80152751851175, -5.0129207370602815]}}, {"type": "Feature", "properties": {"norad_id": 35043, "name": "COSMOS 2251 DEB", "group": "cosmos-2251-debris", "lat": 38.95439307612533, "lon": 45.47618250619909, "alt_km": 698.145695355558, "timestamp": "2025-12-19T14:48:36.644064+00:00", "meta": {"OBJECT_NAME": "COSMOS 2251 DEB", "OBJECT_ID": "1993-036AHG", "EPOCH": "2025-12-18T09:22:03.578880", "MEAN_MOTION": 14.77234349, "ECCENTRICITY": 0.00960967, "INCLINATION": 73.9519, "RA_OF_ASC_NODE": 34.4369, "ARG_OF_PERICENTER": 242.9214, "MEAN_ANOMALY": 116.2132, "EPHEMERIS_TYPE": 0, "CLASSIFICATION_TYPE": "U", "NORAD_CAT_ID": 35043, "ELEMENT_SET_NO": 999, "REV_AT_EPOCH": 67502, "BSTAR": 0.0030540152, "MEAN_MOTION_DOT": 0.00023411, "MEAN_MOTION_DDOT": 0}, "tle": {"line1": "1 35043U 93036AHG 25352.39031920  .00023411  00000+0  30540-2 0  9994", "line2": "2 35043  73.9519  34.4369 0096096 242.9214 116.2132 14.77234349675024"}}, "geometry": {"type": "Point", "coordinates": [45.47618250619909, 38.95439307612533]}}]}